{
    "links": {
        "self": "http://www.neowsapp.com/rest/v1/neo/3673384?api_key=iIulBulltgU6a56xZRHN4H3l9WmuAYTsLGpBGhQ2"
    },
    "id": "3673384",
    "neo_reference_id": "3673384",
    "name": "(2014 LM9)",
    "designation": "2014 LM9",
    "nasa_jpl_url": "http://ssd.jpl.nasa.gov/sbdb.cgi?sstr=3673384",
    "absolute_magnitude_h": 25.0,
    "estimated_diameter": {
        "kilometers": {
            "estimated_diameter_min": 0.02658,
            "estimated_diameter_max": 0.0594346868
        },
        "meters": {
            "estimated_diameter_min": 26.58,
            "estimated_diameter_max": 59.4346868419
        },
        "miles": {
            "estimated_diameter_min": 0.0165160412,
            "estimated_diameter_max": 0.0369309908
        },
        "feet": {
            "estimated_diameter_min": 87.2047272,
            "estimated_diameter_max": 194.9956979785
        }
    },
    "is_potentially_hazardous_asteroid": false,
    "close_approach_data": [
        {
            "close_approach_date": "1910-04-27",
            "close_approach_date_full": "1910-Apr-27 01:43",
            "epoch_date_close_approach": -1883427420000,
            "relative_velocity": {
                "kilometers_per_second": "19.3244205089",
                "kilometers_per_hour": "69567.9138319846",
                "miles_per_hour": "43226.796236324"
            },
            "miss_distance": {
                "astronomical": "0.4759003943",
                "lunar": "185.1252533827",
                "kilometers": "71193685.319440141",
                "miles": "44237704.7278743058"
            },
            "orbiting_body": "Earth"
        },
        {
            "close_approach_date": "2014-06-08",
            "close_approach_date_full": "2014-Jun-08 22:49",
            "epoch_date_close_approach": 1402267740000,
            "relative_velocity": {
                "kilometers_per_second": "7.3866564615",
                "kilometers_per_hour": "26591.9632613986",
                "miles_per_hour": "16523.2118387285"
            },
            "miss_distance": {
                "astronomical": "0.0592351928",
                "lunar": "23.0424899992",
                "kilometers": "8861458.671919336",
                "miles": "5506255.0902893968"
            },
            "orbiting_body": "Earth"
        }
    ],
    "orbital_data": {
        "orbit_id": "8",
        "orbit_determination_date": "2017-04-06 08:40:11",
        "first_observation_date": "2014-06-02",
        "last_observation_date": "2014-06-21",
        "data_arc_in_days": 19,
        "observations_used": 23,
        "orbit_uncertainty": "8",
        "minimum_orbit_intersection": ".0575042",
        "jupiter_tisserand_invariant": "3.155",
        "epoch_osculation": "2456816.5",
        "eccentricity": ".5849722713923751",
        "semi_major_axis": "2.582138545521983",
        "inclination": "4.050519110427481",
        "ascending_node_longitude": "72.50448301162169",
        "orbital_period": "1515.541168129944",
        "perihelion_distance": "1.071659095498185",
        "perihelion_argument": "190.3389340383643",
        "aphelion_distance": "4.092617995545782",
        "perihelion_time": "2456821.379634744659",
        "mean_anomaly": "358.8408968723398",
        "mean_motion": ".2375389118886232",
        "equinox": "J2000",
        "orbit_class": {
            "orbit_class_type": "AMO",
            "orbit_class_description": "Near-Earth asteroid orbits similar to that of 1221 Amor",
            "orbit_class_range": "1.017 AU < q (perihelion) < 1.3 AU"
        }
    },
    "is_sentry_object": false
}